start=new Date('2021-11-04T00:00:00.000Z').valueOf();
sats=[{"OBJECT_NAME":"STARLINK-3089","DECAY_DATE":null,"OBJECT_ID":"2021-082AN","CLASSIFICATION_TYPE":"U","FILE":"3200165","MEAN_MOTION":"15.69731988","MEAN_ELEMENT_THEORY":"SGP4","COUNTRY_CODE":"US","CENTER_NAME":"EARTH","ARG_OF_PERICENTER":"287.9157","BSTAR":"0.00022893000000","NORAD_CAT_ID":"49166","TIME_SYSTEM":"UTC","RCS_SIZE":"LARGE","TLE_LINE2":"2 49166  69.9986 344.0471 0004074 287.9157 152.0060 15.69731988  3680","SITE":"AFWTR","GP_ID":"188860548","EPHEMERIS_TYPE":"0","PERIOD":"91.735","TLE_LINE1":"1 49166U 21082AN  21307.91667824  .00027189  00000-0  22893-3 0  9999","APOAPSIS":"362.411","RA_OF_ASC_NODE":"344.0471","ECCENTRICITY":"0.00040740","LAUNCH_DATE":"2021-09-14","MEAN_ANOMALY":"152.0060","PERIAPSIS":"356.921","MEAN_MOTION_DDOT":"0.0000000000000","INCLINATION":"69.9986","OBJECT_TYPE":"PAYLOAD","SEMIMAJOR_AXIS":"6737.801","EPOCH":"2021-11-03T22:00:00.999936","ELEMENT_SET_NO":"999","REV_AT_EPOCH":"368","REF_FRAME":"TEME","MEAN_MOTION_DOT":"0.00027189"},{"COUNTRY_CODE":"US","MEAN_ELEMENT_THEORY":"SGP4","CENTER_NAME":"EARTH","BSTAR":"0.00067431000000","ARG_OF_PERICENTER":"292.8309","NORAD_CAT_ID":"49167","OBJECT_NAME":"STARLINK-3054","DECAY_DATE":null,"OBJECT_ID":"2021-082AP","CLASSIFICATION_TYPE":"U","MEAN_MOTION":"15.69756547","FILE":"3200165","TLE_LINE2":"2 49167  69.9992 344.0493 0003935 292.8309 144.7608 15.69756547  3685","RCS_SIZE":"LARGE","SITE":"AFWTR","GP_ID":"188860664","EPHEMERIS_TYPE":"0","PERIOD":"91.734","APOAPSIS":"362.247","TLE_LINE1":"1 49167U 21082AP  21307.91667824  .00081099  00000-0  67431-3 0  9997","RA_OF_ASC_NODE":"344.0493","TIME_SYSTEM":"UTC","PERIAPSIS":"356.944","MEAN_MOTION_DDOT":"0.0000000000000","ECCENTRICITY":"0.00039350","LAUNCH_DATE":"2021-09-14","MEAN_ANOMALY":"144.7608","REV_AT_EPOCH":"368","REF_FRAME":"TEME","MEAN_MOTION_DOT":"0.00081099","INCLINATION":"69.9992","OBJECT_TYPE":"PAYLOAD","SEMIMAJOR_AXIS":"6737.731","EPOCH":"2021-11-03T22:00:00.999936","ELEMENT_SET_NO":"999"},{"PERIOD":"91.737","EPHEMERIS_TYPE":"0","GP_ID":"188860085","SITE":"AFWTR","TLE_LINE2":"2 49168  69.9982 344.0370 0004212 289.5208 158.9652 15.69706443  3674","RCS_SIZE":"LARGE","RA_OF_ASC_NODE":"344.0370","TLE_LINE1":"1 49168U 21082AQ  21307.91667824  .00002506  00000-0  22801-4 0  9997","APOAPSIS":"362.577","TIME_SYSTEM":"UTC","CENTER_NAME":"EARTH","COUNTRY_CODE":"US","MEAN_ELEMENT_THEORY":"SGP4","NORAD_CAT_ID":"49168","BSTAR":"0.00002280100000","ARG_OF_PERICENTER":"289.5208","OBJECT_ID":"2021-082AQ","CLASSIFICATION_TYPE":"U","DECAY_DATE":null,"OBJECT_NAME":"STARLINK-3101","FILE":"3200165","MEAN_MOTION":"15.69706443","REV_AT_EPOCH":"367","REF_FRAME":"TEME","MEAN_MOTION_DOT":"0.00002506","OBJECT_TYPE":"PAYLOAD","SEMIMAJOR_AXIS":"6737.874","INCLINATION":"69.9982","ELEMENT_SET_NO":"999","EPOCH":"2021-11-03T22:00:00.999936","MEAN_MOTION_DDOT":"0.0000000000000","PERIAPSIS":"356.901","ECCENTRICITY":"0.00042120","MEAN_ANOMALY":"158.9652","LAUNCH_DATE":"2021-09-14"},{"APOAPSIS":"362.413","TLE_LINE1":"1 49169U 21082AR  21307.91667824  .00086087  00000-0  71735-3 0  9993","RA_OF_ASC_NODE":"344.0426","SITE":"AFWTR","GP_ID":"188860896","RCS_SIZE":"LARGE","TLE_LINE2":"2 49169  69.9989 344.0426 0003880 289.6181 154.5391 15.69685678  3684","EPHEMERIS_TYPE":"0","PERIOD":"91.738","TIME_SYSTEM":"UTC","NORAD_CAT_ID":"49169","ARG_OF_PERICENTER":"289.6181","BSTAR":"0.00071735000000","MEAN_ELEMENT_THEORY":"SGP4","COUNTRY_CODE":"US","CENTER_NAME":"EARTH","FILE":"3200165","MEAN_MOTION":"15.69685678","DECAY_DATE":null,"OBJECT_NAME":"STARLINK-3046","CLASSIFICATION_TYPE":"U","OBJECT_ID":"2021-082AR","MEAN_MOTION_DOT":"0.00086087","REF_FRAME":"TEME","REV_AT_EPOCH":"368","EPOCH":"2021-11-03T22:00:00.999936","ELEMENT_SET_NO":"999","SEMIMAJOR_AXIS":"6737.933","OBJECT_TYPE":"PAYLOAD","INCLINATION":"69.9989","PERIAPSIS":"357.184","MEAN_MOTION_DDOT":"0.0000000000000","LAUNCH_DATE":"2021-09-14","MEAN_ANOMALY":"154.5391","ECCENTRICITY":"0.00038800"},{"EPOCH":"2021-11-03T22:00:00.999936","ELEMENT_SET_NO":"999","SEMIMAJOR_AXIS":"6737.894","OBJECT_TYPE":"PAYLOAD","INCLINATION":"69.9998","MEAN_MOTION_DOT":"0.00076694","REF_FRAME":"TEME","REV_AT_EPOCH":"367","LAUNCH_DATE":"2021-09-14","MEAN_ANOMALY":"165.6994","ECCENTRICITY":"0.00037780","PERIAPSIS":"357.214","MEAN_MOTION_DDOT":"0.0000000000000","TIME_SYSTEM":"UTC","APOAPSIS":"362.305","TLE_LINE1":"1 49170U 21082AS  21307.91667824  .00076694  00000-0  63964-3 0  9993","RA_OF_ASC_NODE":"344.0315","GP_ID":"188860201","SITE":"AFWTR","TLE_LINE2":"2 49170  69.9998 344.0315 0003778 289.1222 165.6994 15.69699297  3673","RCS_SIZE":"LARGE","EPHEMERIS_TYPE":"0","PERIOD":"91.737","MEAN_MOTION":"15.69699297","FILE":"3200165","OBJECT_NAME":"STARLINK-3074","DECAY_DATE":null,"OBJECT_ID":"2021-082AS","CLASSIFICATION_TYPE":"U","NORAD_CAT_ID":"49170","ARG_OF_PERICENTER":"289.1222","BSTAR":"0.00063964000000","COUNTRY_CODE":"US","MEAN_ELEMENT_THEORY":"SGP4","CENTER_NAME":"EARTH"},{"ECCENTRICITY":"0.00037310","LAUNCH_DATE":"2021-09-14","MEAN_ANOMALY":"156.9166","PERIAPSIS":"357.184","MEAN_MOTION_DDOT":"0.0000000000000","INCLINATION":"69.9985","OBJECT_TYPE":"PAYLOAD","SEMIMAJOR_AXIS":"6737.833","EPOCH":"2021-11-03T22:00:00.999936","ELEMENT_SET_NO":"999","REV_AT_EPOCH":"367","REF_FRAME":"TEME","MEAN_MOTION_DOT":"0.00086907","OBJECT_NAME":"STARLINK-3107","DECAY_DATE":null,"OBJECT_ID":"2021-082AT","CLASSIFICATION_TYPE":"U","MEAN_MOTION":"15.69720634","FILE":"3200165","COUNTRY_CODE":"US","CENTER_NAME":"EARTH","MEAN_ELEMENT_THEORY":"SGP4","BSTAR":"0.00072307000000","ARG_OF_PERICENTER":"289.2519","NORAD_CAT_ID":"49171","TIME_SYSTEM":"UTC","RCS_SIZE":"LARGE","TLE_LINE2":"2 49171  69.9985 344.0406 0003731 289.2519 156.9166 15.69720634  3674","SITE":"AFWTR","GP_ID":"188860317","EPHEMERIS_TYPE":"0","PERIOD":"91.736","APOAPSIS":"362.212","TLE_LINE1":"1 49171U 21082AT  21307.91667824  .00086907  00000-0  72307-3 0  9993","RA_OF_ASC_NODE":"344.0406"},{"TLE_LINE1":"1 49172U 21082AU  21307.91667824  .00076158  00000-0  63475-3 0  9997","APOAPSIS":"362.312","RA_OF_ASC_NODE":"344.0280","GP_ID":"188860433","SITE":"AFWTR","TLE_LINE2":"2 49172  69.9990 344.0280 0003864 286.4285 170.4703 15.69716960  3672","RCS_SIZE":"LARGE","PERIOD":"91.736","EPHEMERIS_TYPE":"0","TIME_SYSTEM":"UTC","NORAD_CAT_ID":"49172","ARG_OF_PERICENTER":"286.4285","BSTAR":"0.00063475000000","CENTER_NAME":"EARTH","COUNTRY_CODE":"US","MEAN_ELEMENT_THEORY":"SGP4","FILE":"3200165","MEAN_MOTION":"15.69716960","DECAY_DATE":null,"OBJECT_NAME":"STARLINK-3091","CLASSIFICATION_TYPE":"U","OBJECT_ID":"2021-082AU","REF_FRAME":"TEME","MEAN_MOTION_DOT":"0.00076158","REV_AT_EPOCH":"367","EPOCH":"2021-11-03T22:00:00.999936","ELEMENT_SET_NO":"999","SEMIMAJOR_AXIS":"6737.844","OBJECT_TYPE":"PAYLOAD","INCLINATION":"69.9990","PERIAPSIS":"357.105","MEAN_MOTION_DDOT":"0.0000000000000","LAUNCH_DATE":"2021-09-14","MEAN_ANOMALY":"170.4703","ECCENTRICITY":"0.00038640"},{"CLASSIFICATION_TYPE":"U","OBJECT_ID":"2021-082AV","DECAY_DATE":null,"OBJECT_NAME":"STARLINK-3045","MEAN_MOTION":"15.69737956","FILE":"3200165","COUNTRY_CODE":"US","MEAN_ELEMENT_THEORY":"SGP4","CENTER_NAME":"EARTH","NORAD_CAT_ID":"49173","BSTAR":"0.00029500000000","ARG_OF_PERICENTER":"294.0065","TIME_SYSTEM":"UTC","EPHEMERIS_TYPE":"0","PERIOD":"91.735","GP_ID":"188860781","SITE":"AFWTR","TLE_LINE2":"2 49173  69.9991 343.7179 0003804 294.0065  69.3169 15.69737956  3683","RCS_SIZE":"LARGE","RA_OF_ASC_NODE":"343.7179","APOAPSIS":"362.212","TLE_LINE1":"1 49173U 21082AV  21307.91667824  .00035138  00000-0  29500-3 0  9992","ECCENTRICITY":"0.00038040","MEAN_ANOMALY":"69.3169","LAUNCH_DATE":"2021-09-14","MEAN_MOTION_DDOT":"0.0000000000000","PERIAPSIS":"357.086","SEMIMAJOR_AXIS":"6737.784","OBJECT_TYPE":"PAYLOAD","INCLINATION":"69.9991","ELEMENT_SET_NO":"999","EPOCH":"2021-11-03T22:00:00.999936","REV_AT_EPOCH":"368","MEAN_MOTION_DOT":"0.00035138","REF_FRAME":"TEME"},{"MEAN_MOTION_DDOT":"0.0000000000000","PERIAPSIS":"357.182","ECCENTRICITY":"0.00037180","MEAN_ANOMALY":"163.2532","LAUNCH_DATE":"2021-09-14","REV_AT_EPOCH":"367","MEAN_MOTION_DOT":"0.00020676","REF_FRAME":"TEME","OBJECT_TYPE":"PAYLOAD","SEMIMAJOR_AXIS":"6737.822","INCLINATION":"69.9998","ELEMENT_SET_NO":"999","EPOCH":"2021-11-03T22:00:00.999936","COUNTRY_CODE":"US","CENTER_NAME":"EARTH","MEAN_ELEMENT_THEORY":"SGP4","NORAD_CAT_ID":"49174","ARG_OF_PERICENTER":"289.4720","BSTAR":"0.00017472000000","CLASSIFICATION_TYPE":"U","OBJECT_ID":"2021-082AW","DECAY_DATE":null,"OBJECT_NAME":"STARLINK-3047","MEAN_MOTION":"15.69724493","FILE":"3200165","EPHEMERIS_TYPE":"0","PERIOD":"91.736","GP_ID":"188860549","SITE":"AFWTR","RCS_SIZE":"LARGE","TLE_LINE2":"2 49174  69.9998 344.0339 0003718 289.4720 163.2532 15.69724493  3672","RA_OF_ASC_NODE":"344.0339","TLE_LINE1":"1 49174U 21082AW  21307.91667824  .00020676  00000-0  17472-3 0  9999","APOAPSIS":"362.192","TIME_SYSTEM":"UTC"},{"ELEMENT_SET_NO":"999","EPOCH":"2021-11-03T22:00:00.999936","INCLINATION":"69.9996","OBJECT_TYPE":"PAYLOAD","SEMIMAJOR_AXIS":"6737.844","REF_FRAME":"TEME","MEAN_MOTION_DOT":"0.00024856","REV_AT_EPOCH":"367","MEAN_ANOMALY":"169.2147","LAUNCH_DATE":"2021-09-14","ECCENTRICITY":"0.00039230","MEAN_MOTION_DDOT":"0.0000000000000","PERIAPSIS":"357.066","TIME_SYSTEM":"UTC","RA_OF_ASC_NODE":"344.0259","APOAPSIS":"362.352","TLE_LINE1":"1 49175U 21082AX  21307.91667824  .00024856  00000-0  20963-3 0  9993","EPHEMERIS_TYPE":"0","PERIOD":"91.736","TLE_LINE2":"2 49175  69.9996 344.0259 0003923 289.8860 169.2147 15.69716983  3672","RCS_SIZE":"LARGE","GP_ID":"188860665","SITE":"AFWTR","MEAN_MOTION":"15.69716983","FILE":"3200165","CLASSIFICATION_TYPE":"U","OBJECT_ID":"2021-082AX","DECAY_DATE":null,"OBJECT_NAME":"STARLINK-3087","ARG_OF_PERICENTER":"289.8860","BSTAR":"0.00020963000000","NORAD_CAT_ID":"49175","COUNTRY_CODE":"US","CENTER_NAME":"EARTH","MEAN_ELEMENT_THEORY":"SGP4"}];
